NORAD_CAT_ID,OBJECT_NAME,OBJECT_TYPE,EPOCH,MEAN_MOTION,ECCENTRICITY,INCLINATION,RA_OF_ASC_NODE,ARG_OF_PERICENTER,MEAN_ANOMALY,BSTAR,MEAN_MOTION_DOT,MEAN_MOTION_DDOT,TLE_LINE0,TLE_LINE1,TLE_LINE2,SEMIMAJOR_AXIS,PERIOD,APOGEE,PERIGEE,DECAYED
52627.0,STARLINK-3992,PAYLOAD,2023-06-11 05:43:13,15.08854911,0.0001417,53.217,89.2969,88.7869,271.3286,0.00012071,1.634e-05,0.0,0 STARLINK-3992,1 52627U 22052AF  23162.23835211  .00001634  00000-0  12071-3 0  9990,2 52627  53.2170  89.2969 0001417  88.7869 271.3286 15.08854911 60034,6917.835,95.437,540.68,538.72,0.0
52627.0,STARLINK-3992,PAYLOAD,2023-06-11 12:04:46,15.08855474,0.0001187,53.2164,88.1057,88.134,271.9788,7.5219e-05,9.1e-06,0.0,0 STARLINK-3992,1 52627U 22052AF  23162.50331063  .00000910  00000-0  75219-4 0  9996,2 52627  53.2164  88.1057 0001187  88.1340 271.9788 15.08855474 59705,6917.833,95.437,540.519,538.877,0.0
52627.0,STARLINK-3992,PAYLOAD,2023-06-11 15:15:33,15.08836889,0.0001424,53.2175,87.5149,91.3784,268.7371,0.00012569,1.713e-05,0.0,0 STARLINK-3992,1 52627U 22052AF  23162.63580272  .00001713  00000-0  12569-3 0  9998,2 52627  53.2175  87.5149 0001424  91.3784 268.7371 15.08836889 60099,6917.89,95.438,540.74,538.77,0.0
52627.0,STARLINK-3992,PAYLOAD,2023-06-12 11:55:34,15.08837905,0.0001403,53.2178,83.6493,88.6903,271.425,4.4715e-05,4.24e-06,0.0,0 STARLINK-3992,1 52627U 22052AF  23163.49692534  .00000424  00000-0  44715-4 0  9995,2 52627  53.2178  83.6493 0001403  88.6903 271.4250 15.08837905 59859,6917.887,95.438,540.722,538.781,0.0
52627.0,STARLINK-3992,PAYLOAD,2023-06-13 03:49:26,15.0883382,0.0001268,53.2179,80.6765,80.7807,279.3329,-1.3837e-05,-5.08e-06,0.0,0 STARLINK-3992,1 52627U 22052AF  23164.15933115 -.00000508  00000-0 -13837-4 0  9998,2 52627  53.2179  80.6765 0001268  80.7807 279.3329 15.08833820 60324,6917.899,95.438,540.641,538.887,0.0
52627.0,STARLINK-3992,PAYLOAD,2023-06-13 18:07:54,15.0883618,0.0001429,53.2178,78.0008,90.1179,269.9977,2.7128e-05,1.44e-06,0.0,0 STARLINK-3992,1 52627U 22052AF  23164.75548780  .00000144  00000-0  27128-4 0  9996,2 52627  53.2178  78.0008 0001429  90.1179 269.9977 15.08836180 60045,6917.892,95.438,540.746,538.768,0.0
52627.0,STARLINK-3992,PAYLOAD,2023-06-14 00:29:26,15.08835846,0.0001329,53.2173,76.8093,91.6514,268.463,7.9937e-05,9.84e-06,0.0,0 STARLINK-3992,1 52627U 22052AF  23165.02044667  .00000984  00000-0  79937-4 0  9999,2 52627  53.2173  76.8093 0001329  91.6514 268.4630 15.08835846 60451,6917.893,95.438,540.677,538.839,0.0
52627.0,STARLINK-3992,PAYLOAD,2023-06-15 00:20:13,15.08838964,0.0001111,53.2175,72.3494,93.9382,266.1737,0.00013804,1.91e-05,0.0,0 STARLINK-3992,1 52627U 22052AF  23166.01404367  .00001910  00000-0  13804-3 0  9996,2 52627  53.2175  72.3494 0001111  93.9382 266.1737 15.08838964 60239,6917.884,95.438,540.517,538.98,0.0
52627.0,STARLINK-3992,PAYLOAD,2023-06-15 17:49:28,15.08840286,8.91e-05,53.2183,69.0795,85.0076,275.1018,9.9265e-06,-1.3e-06,0.0,0 STARLINK-3992,1 52627U 22052AF  23166.74268833 -.00000130  00000-0  99265-5 0  9993,2 52627  53.2183  69.0795 0000891  85.0076 275.1018 15.08840286 60716,6917.88,95.438,540.361,539.128,0.0
52627.0,STARLINK-3992,PAYLOAD,2023-06-16 03:21:46,15.08849801,9.97e-05,53.2175,67.2943,89.4885,270.6221,8.6476e-05,1.089e-05,0.0,0 STARLINK-3992,1 52627U 22052AF  23167.14011942  .00001089  00000-0  86476-4 0  9997,2 52627  53.2175  67.2943 0000997  89.4885 270.6221 15.08849801 60779,6917.85,95.437,540.405,539.026,0.0
52627.0,STARLINK-3992,PAYLOAD,2023-06-16 17:40:14,15.08841176,0.0001118,53.2178,64.617,98.5816,261.5303,6.9128e-05,8.13e-06,0.0,0 STARLINK-3992,1 52627U 22052AF  23167.73628322  .00000813  00000-0  69128-4 0  9997,2 52627  53.2178  64.6170 0001118  98.5816 261.5303 15.08841176 60492,6917.877,95.437,540.515,538.968,0.0
52627.0,STARLINK-3992,PAYLOAD,2023-06-17 09:34:07,15.08825201,0.0001117,53.2174,61.6434,89.1639,270.9481,-4.105e-05,-9.41e-06,0.0,0 STARLINK-3992,1 52627U 22052AF  23168.39869668 -.00000941  00000-0 -41050-4 0  9998,2 52627  53.2174  61.6434 0001117  89.1639 270.9481 15.08825201 60960,6917.926,95.438,540.563,539.018,0.0
52627.0,STARLINK-3992,PAYLOAD,2023-06-17 19:06:26,15.08821271,0.0001137,53.2171,59.8604,104.4751,255.6367,-0.00011839,-2.17e-05,0.0,0 STARLINK-3992,1 52627U 22052AF  23168.79614482 -.00002170  00000-0 -11839-3 0  9991,2 52627  53.2171  59.8604 0001137 104.4751 255.6367 15.08821271 60655,6917.938,95.439,540.589,539.016,0.0
52627.0,STARLINK-3992,PAYLOAD,2023-06-18 09:24:54,15.08835453,0.0001168,53.2177,57.185,103.9615,256.1507,-2.2073e-05,-6.39e-06,0.0,0 STARLINK-3992,1 52627U 22052AF  23169.39229750 -.00000639  00000-0 -22073-4 0  9999,2 52627  53.2177  57.1850 0001168 103.9615 256.1507 15.08835453 61113,6917.894,95.438,540.567,538.951,0.0
52627.0,STARLINK-3992,PAYLOAD,2023-06-18 18:57:12,15.08845001,9.96e-05,53.2178,55.4009,96.5645,263.5461,8.8018e-05,1.114e-05,0.0,0 STARLINK-3992,1 52627U 22052AF  23169.78972997  .00001114  00000-0  88018-4 0  9998,2 52627  53.2178  55.4009 0000996  96.5645 263.5461 15.08845001 60805,6917.865,95.437,540.419,539.041,0.0
52627.0,STARLINK-3992,PAYLOAD,2023-06-19 01:18:44,15.08854271,9.88e-05,53.2176,54.2115,99.9562,260.1541,0.00011454,1.536e-05,0.0,0 STARLINK-3992,1 52627U 22052AF  23170.05468323  .00001536  00000-0  11454-3 0  9990,2 52627  53.2176  54.2115 0000988  99.9562 260.1541 15.08854271 61211,6917.837,95.437,540.385,539.018,0.0
52627.0,STARLINK-3992,PAYLOAD,2023-06-19 09:15:40,15.08849507,9.85e-05,53.2169,52.7244,103.6373,256.4728,0.0001696,2.413e-05,0.0,0 STARLINK-3992,1 52627U 22052AF  23170.38588722  .00002413  00000-0  16960-3 0  9994,2 52627  53.2169  52.7244 0000985 103.6373 256.4728 15.08849507 61265,6917.851,95.437,540.398,539.035,0.0
52627.0,STARLINK-3992,PAYLOAD,2023-06-20 01:09:32,15.08840509,0.0001014,53.2168,49.751,95.4481,264.6627,0.00020663,3.002e-05,0.0,0 STARLINK-3992,1 52627U 22052AF  23171.04829438  .00003002  00000-0  20663-3 0  9990,2 52627  53.2168  49.7510 0001014  95.4481 264.6627 15.08840509 61361,6917.879,95.438,540.445,539.042,0.0
52627.0,STARLINK-3992,PAYLOAD,2023-06-20 09:06:28,15.08837247,0.0001202,53.2181,48.2615,84.7275,275.3854,-1.0929e-06,-3.05e-06,0.0,0 STARLINK-3992,1 52627U 22052AF  23171.37949495 -.00000305  00000-0 -10929-5 0  9993,2 52627  53.2181  48.2615 0001202  84.7275 275.3854 15.08837247 61048,6917.889,95.438,540.585,538.922,0.0
52627.0,STARLINK-3992,PAYLOAD,2023-06-20 20:14:10,15.08841429,0.0001067,53.2171,46.1832,83.325,276.7864,2.6237e-05,1.3e-06,0.0,0 STARLINK-3992,1 52627U 22052AF  23171.84317539  .00000130  00000-0  26237-4 0  9995,2 52627  53.2171  46.1832 0001067  83.3250 276.7864 15.08841429 61113,6917.876,95.437,540.479,539.003,0.0
52627.0,STARLINK-3992,PAYLOAD,2023-06-21 01:00:19,15.08850811,9.9e-05,53.2179,45.2902,90.2495,269.8611,4.3713e-05,4.08e-06,0.0,0 STARLINK-3992,1 52627U 22052AF  23172.04189114  .00000408  00000-0  43713-4 0  9990,2 52627  53.2179  45.2902 0000990  90.2495 269.8611 15.08850811 61142,6917.847,95.437,540.397,539.027,0.0
52627.0,STARLINK-3992,PAYLOAD,2023-06-21 20:04:57,15.08839339,9.42e-05,53.2172,41.7219,80.1051,280.0047,0.00010704,1.416e-05,0.0,0 STARLINK-3992,1 52627U 22052AF  23172.83677632  .00001416  00000-0  10704-3 0  9997,2 52627  53.2172  41.7219 0000942  80.1051 280.0047 15.08839339 61263,6917.882,95.438,540.399,539.096,0.0
52627.0,STARLINK-3992,PAYLOAD,2023-06-21 21:40:20,15.08845151,9.32e-05,53.2171,41.4236,90.8927,269.2171,0.00010066,1.315e-05,0.0,0 STARLINK-3992,1 52627U 22052AF  23172.90301293  .00001315  00000-0  10066-3 0  9991,2 52627  53.2171  41.4236 0000932  90.8927 269.2171 15.08845151 61645,6917.865,95.437,540.374,539.085,0.0
52627.0,STARLINK-3992,PAYLOAD,2023-06-22 18:20:21,15.088369,8.93e-05,53.2179,37.5575,94.0395,266.0699,0.0001389,1.923e-05,0.0,0 STARLINK-3992,1 52627U 22052AF  23173.76413630  .00001923  00000-0  13890-3 0  9998,2 52627  53.2179  37.5575 0000893  94.0395 266.0699 15.08836900 61772,6917.89,95.438,540.373,539.137,0.0
52627.0,STARLINK-3992,PAYLOAD,2023-06-23 00:41:53,15.08848465,9.49e-05,53.2182,36.368,100.4104,259.6995,8.9725e-05,1.141e-05,0.0,0 STARLINK-3992,1 52627U 22052AF  23174.02908909  .00001141  00000-0  89725-4 0  9999,2 52627  53.2182  36.3680 0000949 100.4104 259.6995 15.08848465 61813,6917.855,95.437,540.376,539.063,0.0
52627.0,STARLINK-3992,PAYLOAD,2023-06-24 00:32:40,15.08844198,9.42e-05,53.2179,31.9085,82.7437,277.3663,5.115e-05,5.26e-06,0.0,0 STARLINK-3992,1 52627U 22052AF  23175.02269415  .00000526  00000-0  51150-4 0  9999,2 52627  53.2179  31.9085 0000942  82.7437 277.3663 15.08844198 61967,6917.868,95.437,540.384,539.081,0.0
52627.0,STARLINK-3992,PAYLOAD,2023-06-25 06:45:00,15.08835391,0.000128,53.218,26.2554,74.1381,285.9753,1.7086e-05,-1.6e-07,0.0,0 STARLINK-3992,1 52627U 22052AF  23176.28126138 -.00000016  00000-0  17086-4 0  9997,2 52627  53.2180  26.2554 0001280  74.1381 285.9753 15.08835391 62158,6917.894,95.438,540.645,538.874,0.0
52627.0,STARLINK-3992,PAYLOAD,2023-06-26 00:14:14,15.08846039,9.91e-05,53.2175,22.9879,85.2186,274.8919,0.00012536,1.708e-05,0.0,0 STARLINK-3992,1 52627U 22052AF  23177.00989498  .00001708  00000-0  12536-3 0  9996,2 52627  53.2175  22.9879 0000991  85.2186 274.8919 15.08846039 62263,6917.862,95.437,540.412,539.041,0.0
52627.0,STARLINK-3992,PAYLOAD,2023-06-26 06:35:47,15.08838359,9.78e-05,53.2179,21.7979,81.4175,278.6928,1.7196e-05,-1.4e-07,0.0,0 STARLINK-3992,1 52627U 22052AF  23177.27485901 -.00000014  00000-0  17196-4 0  9993,2 52627  53.2179  21.7979 0000978  81.4175 278.6928 15.08838359 62309,6917.885,95.438,540.427,539.074,0.0
52627.0,STARLINK-3992,PAYLOAD,2023-06-26 16:08:07,15.08835177,9.83e-05,53.2183,20.0142,84.6951,275.4153,-4.0503e-05,-9.32e-06,0.0,0 STARLINK-3992,1 52627U 22052AF  23177.67230791 -.00000932  00000-0 -40503-4 0  9990,2 52627  53.2183  20.0142 0000983  84.6951 275.4153 15.08835177 62367,6917.895,95.438,540.44,539.08,0.0
